[{"OBJECT_NAME":"STARLINK-5347","OBJECT_ID":"2023-090AN","EPOCH":"2026-03-09T22:00:01.999584","MEAN_MOTION":15.10072619,"ECCENTRICITY":0.00014507,"INCLINATION":43.0004,"RA_OF_ASC_NODE":260.5054,"ARG_OF_PERICENTER":304.2293,"MEAN_ANOMALY":152.4326,"EPHEMERIS_TYPE":0,"CLASSIFICATION_TYPE":"U","NORAD_CAT_ID":57137,"ELEMENT_SET_NO":999,"REV_AT_EPOCH":573,"BSTAR":0.0065092627,"MEAN_MOTION_DOT":0.00109267,"MEAN_MOTION_DDOT":0},{"OBJECT_NAME":"FENGYUN 1C DEB","OBJECT_ID":"1999-025BQF","EPOCH":"2026-03-08T19:58:36.101856","MEAN_MOTION":15.15826086,"ECCENTRICITY":0.00798835,"INCLINATION":98.9812,"RA_OF_ASC_NODE":89.4872,"ARG_OF_PERICENTER":83.7388,"MEAN_ANOMALY":277.2932,"EPHEMERIS_TYPE":0,"CLASSIFICATION_TYPE":"U","NORAD_CAT_ID":31327,"ELEMENT_SET_NO":999,"REV_AT_EPOCH":1401,"BSTAR":0.0018254058,"MEAN_MOTION_DOT":0.00037915,"MEAN_MOTION_DDOT":0}]
